{
  "type": "FeatureCollection",
  "features": [
    {
      "type": "Feature",
      "geometry": {
        "type": "LineString",
        "coordinates": [
          [
            71.499755859375,
            18.499418258666992
          ],
          [
            71.47864532470703,
            18.507225036621094
          ],
          [
            71.45750427246094,
            18.515033721923828
          ],
          [
            71.43634033203125,
            18.522836685180664
          ],
          [
            71.41520690917969,
            18.530643463134766
          ],
          [
            71.39403533935547,
            18.538442611694336
          ],
          [
            71.3729248046875,
            18.546249389648438
          ],
          [
            71.35179138183594,
            18.554052352905273
          ],
          [
            71.3306655883789,
            18.561857223510742
          ],
          [
            71.30950927734375,
            18.56966209411621
          ],
          [
            71.28833770751953,
            18.57746696472168
          ],
          [
            71.26718139648438,
            18.58527183532715
          ],
          [
            71.2460708618164,
            18.59307861328125
          ]
        ]
      },
      "properties": {
        "description": "Backward Drift Trajectory",
        "stroke": "#00ff00"
      }
    }
  ]
}