// Complete India Maritime Boundary (Simplified for performance)
const indiaCoastline = {
  "type": "Feature",
  "properties": {"name": "India Maritime Boundary"},
  "geometry": {
    "type": "LineString",
    "coordinates": [
      // Western Coast - Complete
      [72.82, 21.05], [72.75, 20.80], [72.70, 20.50], [72.68, 20.20], [72.70, 20.00],
      [72.75, 19.70], [72.80, 19.50], [72.85, 19.20], [72.88, 19.00], [72.90, 18.70],
      [72.92, 18.50], [72.95, 18.20], [72.98, 18.00], [73.02, 17.70], [73.08, 17.50],
      [73.15, 17.20], [73.22, 17.00], [73.30, 16.70], [73.40, 16.50], [73.50, 16.20],
      [73.58, 16.00], [73.68, 15.70], [73.78, 15.50], [73.88, 15.20], [73.95, 15.00],
      [74.05, 14.70], [74.15, 14.50], [74.25, 14.20], [74.32, 14.00], [74.40, 13.70],
      [74.48, 13.50], [74.58, 13.20], [74.68, 13.00], [74.75, 12.70], [74.82, 12.50],
      [74.88, 12.20], [74.92, 12.00], [74.95, 11.70], [74.98, 11.50], [75.02, 11.20],
      [75.08, 11.00], [75.18, 10.70], [75.30, 10.50], [75.45, 10.20], [75.62, 10.00],
      [75.80, 9.70], [76.00, 9.50], [76.20, 9.20], [76.40, 9.00], [76.60, 8.80],
      [76.80, 8.60], [77.00, 8.40], [77.20, 8.30], [77.40, 8.20], [77.60, 8.15],
      // Southern Tip
      [77.80, 8.10], [78.00, 8.05], [78.20, 8.10], [78.40, 8.20], [78.60, 8.35],
      // Eastern Coast - Complete
      [78.80, 8.55], [79.00, 8.80], [79.20, 9.10], [79.40, 9.45], [79.60, 9.80],
      [79.75, 10.15], [79.88, 10.50], [80.00, 10.85], [80.10, 11.20], [80.18, 11.55],
      [80.25, 11.90], [80.30, 12.25], [80.32, 12.60], [80.33, 13.00], [80.34, 13.40],
      [80.35, 13.80], [80.38, 14.20], [80.42, 14.60], [80.48, 15.00], [80.55, 15.40],
      [80.65, 15.80], [80.78, 16.20], [80.92, 16.60], [81.08, 17.00], [81.25, 17.40],
      [81.45, 17.80], [81.68, 18.20], [81.92, 18.60], [82.18, 19.00], [82.45, 19.40],
      [82.72, 19.80], [83.00, 20.20], [83.28, 20.60], [83.55, 20.90], [83.82, 21.10],
      [84.10, 21.20], [84.38, 21.25], [84.68, 21.20], [85.00, 21.10], [85.35, 20.95],
      [85.70, 20.80], [86.05, 20.65], [86.40, 20.50], [86.75, 20.40], [87.10, 20.35],
      [87.45, 20.40], [87.80, 20.55], [88.10, 20.80], [88.35, 21.10], [88.55, 21.40]
    ]
  }
};

// Then in App component:
const territorialBuffer = turf.buffer(indiaCoastline, 22, { units: 'kilometers', steps: 128 });
const eezBuffer = turf.buffer(indiaCoastline, 50, { units: 'kilometers', steps: 128 });
